[{"OBJECT_NAME":"SHIJIAN-6 01B (SJ-6 01B)","OBJECT_ID":"2004-035B","EPOCH":"2026-03-09T23:36:14.904576","MEAN_MOTION":15.05644225,"ECCENTRICITY":0.00063174,"INCLINATION":97.6149,"RA_OF_ASC_NODE":88.1348,"ARG_OF_PERICENTER":111.8734,"MEAN_ANOMALY":248.3165,"EPHEMERIS_TYPE":0,"CLASSIFICATION_TYPE":"U","NORAD_CAT_ID":28414,"ELEMENT_SET_NO":999,"REV_AT_EPOCH":17189,"BSTAR":0.00017015082,"MEAN_MOTION_DOT":2.395e-5,"MEAN_MOTION_DDOT":0},{"OBJECT_NAME":"STARLINK-5876","OBJECT_ID":"2023-058E","EPOCH":"2026-03-09T23:34:36.790464","MEAN_MOTION":15.05649465,"ECCENTRICITY":0.00025007,"INCLINATION":97.6044,"RA_OF_ASC_NODE":71.5527,"ARG_OF_PERICENTER":114.8065,"MEAN_ANOMALY":245.3422,"EPHEMERIS_TYPE":0,"CLASSIFICATION_TYPE":"U","NORAD_CAT_ID":56321,"ELEMENT_SET_NO":999,"REV_AT_EPOCH":15789,"BSTAR":-0.0038503464,"MEAN_MOTION_DOT":-0.00055192,"MEAN_MOTION_DDOT":0}]
